NORAD_CAT_ID,OBJECT_NAME,OBJECT_TYPE,EPOCH,MEAN_MOTION,ECCENTRICITY,INCLINATION,RA_OF_ASC_NODE,ARG_OF_PERICENTER,MEAN_ANOMALY,BSTAR,MEAN_MOTION_DOT,MEAN_MOTION_DDOT,TLE_LINE0,TLE_LINE1,TLE_LINE2,SEMIMAJOR_AXIS,PERIOD,APOGEE,PERIGEE,DECAYED
56464.0,STARLINK-6043,PAYLOAD,2024-05-15 01:34:59,14.98283841,0.0002493,70.0006,17.6072,263.4638,96.6237,0.0014683,0.00017449,0.0,0 STARLINK-6043,1 56464U 23064S   24136.06597140  .00017449  00000-0  14683-2 0  9997,2 56464  70.0006  17.6072 0002493 263.4638  96.6237 14.98283841 56207,6950.336,96.11,573.933,570.468,0.0
56464.0,STARLINK-6043,PAYLOAD,2024-05-15 09:35:39,14.9833924,0.0002482,70.0024,16.765,274.8571,85.2305,0.0002294,2.646e-05,0.0,0 STARLINK-6043,1 56464U 23064S   24136.39976287  .00002646  00000-0  22940-3 0  9995,2 56464  70.0024  16.7650 0002482 274.8571  85.2305 14.98339240 56259,6950.164,96.106,573.754,570.304,0.0
56464.0,STARLINK-6043,PAYLOAD,2024-05-15 22:24:43,14.98353786,0.0002998,69.9994,15.4199,270.1398,89.9417,1.9889e-05,1.44e-06,0.0,0 STARLINK-6043,1 56464U 23064S   24136.93383108  .00000144  00000-0  19889-4 0  9999,2 56464  69.9994  15.4199 0002998 270.1398  89.9417 14.98353786 55978,6950.119,96.105,574.068,569.901,0.0
56464.0,STARLINK-6043,PAYLOAD,2024-05-16 01:36:58,14.98356699,0.0002818,70.0002,15.083,269.9118,90.1718,5.3066e-05,5.41e-06,0.0,0 STARLINK-6043,1 56464U 23064S   24137.06734638  .00000541  00000-0  53066-4 0  9998,2 56464  70.0002  15.0830 0002818 269.9118  90.1718 14.98356699 56353,6950.11,96.105,573.934,570.017,0.0
56464.0,STARLINK-6043,PAYLOAD,2024-05-16 09:37:39,14.98346669,0.0002633,69.9997,14.2418,276.0791,84.0068,-4.5689e-05,-6.38e-06,0.0,0 STARLINK-6043,1 56464U 23064S   24137.40115143 -.00000638  00000-0 -45689-4 0  9991,2 56464  69.9997  14.2418 0002633 276.0791  84.0068 14.98346669 56409,6950.141,96.106,573.836,570.176,0.0
56464.0,STARLINK-6043,PAYLOAD,2024-05-16 22:26:43,14.98344823,0.0002326,70.0001,12.8943,272.5717,87.5176,-0.00016348,-2.044e-05,0.0,0 STARLINK-6043,1 56464U 23064S   24137.93523105 -.00002044  00000-0 -16348-3 0  9992,2 56464  70.0001  12.8943 0002326 272.5717  87.5176 14.98344823 56120,6950.147,96.106,573.629,570.395,0.0
56464.0,STARLINK-6043,PAYLOAD,2024-05-17 01:39:00,14.98341536,0.0002486,70.0,12.5583,273.3002,86.7873,-0.00018923,-2.351e-05,0.0,0 STARLINK-6043,1 56464U 23064S   24138.06875262 -.00002351  00000-0 -18923-3 0  9993,2 56464  70.0000  12.5583 0002486 273.3002  86.7873 14.98341536 56504,6950.157,96.106,573.75,570.294,0.0
56464.0,STARLINK-6043,PAYLOAD,2024-05-17 22:28:46,14.98321936,0.0002642,69.9987,10.368,278.4094,81.6766,-0.0002106,-2.604e-05,0.0,0 STARLINK-6043,1 56464U 23064S   24138.93664589 -.00002604  00000-0 -21060-3 0  9994,2 56464  69.9987  10.3680 0002642 278.4094  81.6766 14.98321936 56271,6950.218,96.108,573.919,570.247,0.0
56464.0,STARLINK-6043,PAYLOAD,2024-05-18 01:41:01,14.98337295,0.0002885,70.0001,10.0336,270.0745,90.0083,-3.3304e-05,-4.9e-06,0.0,0 STARLINK-6043,1 56464U 23064S   24139.07015268 -.00000490  00000-0 -33304-4 0  9990,2 56464  70.0001  10.0336 0002885 270.0745  90.0083 14.98337295 56659,6950.17,96.107,574.04,570.03,0.0
56464.0,STARLINK-6043,PAYLOAD,2024-05-18 08:05:33,14.98337901,0.0002585,70.0009,9.3622,264.9245,95.162,-4.4736e-05,-6.27e-06,0.0,0 STARLINK-6043,1 56464U 23064S   24139.33719182 -.00000627  00000-0 -44736-4 0  9998,2 56464  70.0009   9.3622 0002585 264.9245  95.1620 14.98337901 56332,6950.168,96.106,573.83,570.237,0.0
56464.0,STARLINK-6043,PAYLOAD,2024-05-18 20:54:37,14.98344725,0.000255,70.0005,8.0132,276.6632,83.4237,0.00014806,1.675e-05,0.0,0 STARLINK-6043,1 56464U 23064S   24139.87126185  .00001675  00000-0  14806-3 0  9998,2 56464  70.0005   8.0132 0002550 276.6632  83.4237 14.98344725 56776,6950.147,96.106,573.785,570.24,0.0
56464.0,STARLINK-6043,PAYLOAD,2024-05-18 22:30:44,14.98345996,0.0002973,70.0001,7.8453,273.5957,86.4862,0.00025752,2.982e-05,0.0,0 STARLINK-6043,1 56464U 23064S   24139.93801849  .00002982  00000-0  25752-3 0  9996,2 56464  70.0001   7.8453 0002973 273.5957  86.4862 14.98345996 56420,6950.143,96.106,574.075,569.942,0.0
56464.0,STARLINK-6043,PAYLOAD,2024-05-19 01:43:01,14.9835336,0.0002776,70.0018,7.5092,269.0764,91.0077,0.00055455,6.534e-05,0.0,0 STARLINK-6043,1 56464U 23064S   24140.07154040  .00006534  00000-0  55455-3 0  9997,2 56464  70.0018   7.5092 0002776 269.0764  91.0077 14.98353360 56447,6950.121,96.106,573.915,570.056,0.0
56464.0,STARLINK-6043,PAYLOAD,2024-05-19 20:56:39,14.98322352,0.0002975,70.002,5.4898,269.106,90.9758,-0.00031022,-3.792e-05,0.0,0 STARLINK-6043,1 56464U 23064S   24140.87267639 -.00003792  00000-0 -31022-3 0  9993,2 56464  70.0020   5.4898 0002975 269.1060  90.9758 14.98322352 56926,6950.217,96.107,574.149,570.014,0.0
56464.0,STARLINK-6043,PAYLOAD,2024-05-20 14:34:08,14.98327564,0.0003935,69.9995,3.6365,280.5059,79.5657,0.00021543,2.478e-05,0.0,0 STARLINK-6043,1 56464U 23064S   24141.60703958  .00002478  00000-0  21543-3 0  9999,2 56464  69.9995   3.6365 0003935 280.5059  79.5657 14.98327564 56678,6950.2,96.107,574.8,569.331,0.0
56464.0,STARLINK-6043,PAYLOAD,2024-05-20 20:58:40,14.98340035,0.0003365,70.0014,2.9649,278.494,81.5838,0.0012621,0.00015003,0.0,0 STARLINK-6043,1 56464U 23064S   24141.87407958  .00015003  00000-0  12621-2 0  9993,2 56464  70.0014   2.9649 0003365 278.4940  81.5838 14.98340035 57079,6950.162,96.106,574.366,569.688,0.0
56464.0,STARLINK-6043,PAYLOAD,2024-05-21 00:10:56,14.98350367,0.0003433,70.0012,2.6281,277.882,82.1949,0.0014907,0.00017749,0.0,0 STARLINK-6043,1 56464U 23064S   24142.00759658  .00017749  00000-0  14907-2 0  9994,2 56464  70.0012   2.6281 0003433 277.8820  82.1949 14.98350367 56733,6950.13,96.106,574.381,569.609,0.0
56464.0,STARLINK-6043,PAYLOAD,2024-05-21 21:00:40,14.98348588,0.0003395,70.0013,0.439,273.5641,86.513,0.0016649,0.00019839,0.0,0 STARLINK-6043,1 56464U 23064S   24142.87547432  .00019839  00000-0  16649-2 0  9991,2 56464  70.0013   0.4390 0003395 273.5641  86.5130 14.98348588 57229,6950.135,96.106,574.36,569.641,0.0
56464.0,STARLINK-6043,PAYLOAD,2024-05-21 22:36:49,14.98341567,0.000317,70.0022,0.2722,272.0259,88.0537,0.00099795,0.00011838,0.0,0 STARLINK-6043,1 56464U 23064S   24142.94223486  .00011838  00000-0  99795-3 0  9994,2 56464  70.0022   0.2722 0003170 272.0259  88.0537 14.98341567 56874,6950.157,96.106,574.225,569.819,0.0
56464.0,STARLINK-6043,PAYLOAD,2024-05-22 00:12:57,14.98340508,0.0003011,70.0022,0.1037,271.7359,88.3455,0.00043188,5.065e-05,0.0,0 STARLINK-6043,1 56464U 23064S   24143.00899462  .00005065  00000-0  43188-3 0  9995,2 56464  70.0022   0.1037 0003011 271.7359  88.3455 14.98340508 57241,6950.16,96.106,574.118,569.933,0.0
56464.0,STARLINK-6043,PAYLOAD,2024-05-22 21:02:42,14.98333312,0.0002821,70.002,357.9158,267.6752,92.4084,5.5441e-05,5.69e-06,0.0,0 STARLINK-6043,1 56464U 23064S   24143.87687571  .00000569  00000-0  55441-4 0  9996,2 56464  70.0020 357.9158 0002821 267.6752  92.4084 14.98333312 57378,6950.183,96.107,574.008,570.087,0.0
56464.0,STARLINK-6043,PAYLOAD,2024-05-23 14:40:10,14.98337068,0.0002812,70.0014,356.0648,268.2933,91.7904,0.00018819,2.154e-05,0.0,0 STARLINK-6043,1 56464U 23064S   24144.61123325  .00002154  00000-0  18819-3 0  9990,2 56464  70.0014 356.0648 0002812 268.2933  91.7904 14.98337068 57121,6950.171,96.107,573.99,570.082,0.0
56464.0,STARLINK-6043,PAYLOAD,2024-05-23 21:04:42,14.98337459,0.0002873,70.0013,355.3903,265.3234,94.7597,0.00014926,1.689e-05,0.0,0 STARLINK-6043,1 56464U 23064S   24144.87827155  .00001689  00000-0  14926-3 0  9997,2 56464  70.0013 355.3903 0002873 265.3234  94.7597 14.98337459 57164,6950.17,96.107,574.032,570.038,0.0
56464.0,STARLINK-6043,PAYLOAD,2024-05-24 00:16:58,14.98338494,0.0002879,70.0013,355.0537,265.8096,94.2734,0.00016008,1.818e-05,0.0,0 STARLINK-6043,1 56464U 23064S   24145.01179050  .00001818  00000-0  16008-3 0  9995,2 56464  70.0013 355.0537 0002879 265.8096  94.2734 14.98338494 57541,6950.167,96.106,574.033,570.031,0.0
56464.0,STARLINK-6043,PAYLOAD,2024-05-24 14:42:11,14.98336009,0.000279,70.0015,353.5378,261.5739,98.5104,0.00010219,1.127e-05,0.0,0 STARLINK-6043,1 56464U 23064S   24145.61263007  .00001127  00000-0  10219-3 0  9998,2 56464  70.0015 353.5378 0002790 261.5739  98.5104 14.98336009 57276,6950.174,96.107,573.978,570.1,0.0
56464.0,STARLINK-6043,PAYLOAD,2024-05-24 21:06:44,14.98330649,0.0002855,69.9997,352.8652,277.7398,82.3437,5.4063e-05,5.52e-06,0.0,0 STARLINK-6043,1 56464U 23064S   24145.87967629  .00000552  00000-0  54063-4 0  9994,2 56464  69.9997 352.8652 0002855 277.7398  82.3437 14.98330649 57679,6950.191,96.107,574.04,570.072,0.0
56464.0,STARLINK-6043,PAYLOAD,2024-05-24 22:42:51,14.98336077,0.0002669,70.0014,352.6972,274.111,85.9744,0.00011074,1.229e-05,0.0,0 STARLINK-6043,1 56464U 23064S   24145.94643008  .00001229  00000-0  11074-3 0  9990,2 56464  70.0014 352.6972 0002669 274.1110  85.9744 14.98336077 57324,6950.174,96.107,573.894,570.184,0.0
56464.0,STARLINK-6043,PAYLOAD,2024-05-25 00:18:59,14.98337174,0.0002913,69.9998,352.5283,272.4127,87.6698,0.00013802,1.554e-05,0.0,0 STARLINK-6043,1 56464U 23064S   24146.01318941  .00001554  00000-0  13802-3 0  9996,2 56464  69.9998 352.5283 0002913 272.4127  87.6698 14.98337174 57693,6950.171,96.107,574.06,570.011,0.0
56464.0,STARLINK-6043,PAYLOAD,2024-05-25 13:08:04,14.98330834,0.0002813,69.9996,351.1819,264.3932,95.6907,3.436e-05,3.17e-06,0.0,0 STARLINK-6043,1 56464U 23064S   24146.54727480  .00000317  00000-0  34360-4 0  9995,2 56464  69.9996 351.1819 0002813 264.3932  95.6907 14.98330834 57771,6950.19,96.107,574.01,570.1,0.0
56464.0,STARLINK-6043,PAYLOAD,2024-05-25 14:44:12,14.98326979,0.0002651,70.0013,351.0143,257.5712,102.515,7.6903e-05,8.25e-06,0.0,0 STARLINK-6043,1 56464U 23064S   24146.61403621  .00000825  00000-0  76903-4 0  9994,2 56464  70.0013 351.0143 0002651 257.5712 102.5150 14.98326979 57428,6950.202,96.107,573.91,570.225,0.0
